{
  "type": "FeatureCollection",
  "features": [
    {
      "type": "Feature",
      "properties": {
        "norad_id": 33860,
        "name": "IRIDIUM 33 DEB",
        "group": "iridium-33-debris",
        "lat": -84.04511909185977,
        "lon": -13.58648048006395,
        "alt_km": 673.9312275234752,
        "timestamp": "2025-12-20T14:38:02.354097+00:00",
        "meta_object_name": "IRIDIUM 33 DEB",
        "meta_object_id": "1997-051AD",
        "meta_epoch": "2025-12-20T03:52:13.322784",
        "meta_mean_motion": 14.67450361,
        "meta_eccentricity": 0.00065297,
        "meta_inclination": 86.3822,
        "meta_ra_of_asc_node": 23.9529,
        "meta_arg_of_pericenter": 329.8946,
        "meta_mean_anomaly": 97.1869,
        "meta_ephemeris_type": 0,
        "meta_classification_type": "U",
        "meta_norad_cat_id": 33860,
        "meta_element_set_no": 999,
        "meta_rev_at_epoch": 88831,
        "meta_bstar": 0.00071152388,
        "meta_mean_motion_dot": 4.049e-05,
        "meta_mean_motion_ddot": 0,
        "tle_line1": "1 33860U 97051AD  25354.16126531  .00004049  00000+0  71152-3 0  9991",
        "tle_line2": "2 33860  86.3822  23.9529 0006529 329.8946  97.1869 14.67450361888319"
      },
      "geometry": {
        "type": "Point",
        "coordinates": [
          -13.58648048006395,
          -84.04511909185977
        ]
      }
    },
    {
      "type": "Feature",
      "properties": {
        "norad_id": 33862,
        "name": "IRIDIUM 33 DEB",
        "group": "iridium-33-debris",
        "lat": 9.670436731752234,
        "lon": 34.67318351961692,
        "alt_km": 632.931520819614,
        "timestamp": "2025-12-20T14:38:02.354108+00:00",
        "meta_object_name": "IRIDIUM 33 DEB",
        "meta_object_id": "1997-051AF",
        "meta_epoch": "2025-12-20T01:36:41.237280",
        "meta_mean_motion": 14.69582079,
        "meta_eccentricity": 0.00527311,
        "meta_inclination": 86.4082,
        "meta_ra_of_asc_node": 34.2992,
        "meta_arg_of_pericenter": 44.6523,
        "meta_mean_anomaly": 336.7,
        "meta_ephemeris_type": 0,
        "meta_classification_type": "U",
        "meta_norad_cat_id": 33862,
        "meta_element_set_no": 999,
        "meta_rev_at_epoch": 88931,
        "meta_bstar": 0.00085473534,
        "meta_mean_motion_dot": 5.209e-05,
        "meta_mean_motion_ddot": 0,
        "tle_line1": "1 33862U 97051AF  25354.06714395  .00005209  00000+0  85474-3 0  9994",
        "tle_line2": "2 33862  86.4082  34.2992 0052731  44.6523 336.7000 14.69582079889312"
      },
      "geometry": {
        "type": "Point",
        "coordinates": [
          34.67318351961692,
          9.670436731752234
        ]
      }
    },
    {
      "type": "Feature",
      "properties": {
        "norad_id": 33866,
        "name": "IRIDIUM 33 DEB",
        "group": "iridium-33-debris",
        "lat": -83.4395974696421,
        "lon": -56.05451309087852,
        "alt_km": 865.4119146392159,
        "timestamp": "2025-12-20T14:38:02.354119+00:00",
        "meta_object_name": "IRIDIUM 33 DEB",
        "meta_object_id": "1997-051AK",
        "meta_epoch": "2025-12-20T00:30:41.152896",
        "meta_mean_motion": 14.25295275,
        "meta_eccentricity": 0.01149746,
        "meta_inclination": 86.3001,
        "meta_ra_of_asc_node": 89.9552,
        "meta_arg_of_pericenter": 138.2993,
        "meta_mean_anomaly": 347.795,
        "meta_ephemeris_type": 0,
        "meta_classification_type": "U",
        "meta_norad_cat_id": 33866,
        "meta_element_set_no": 999,
        "meta_rev_at_epoch": 86914,
        "meta_bstar": 0.00039193514,
        "meta_mean_motion_dot": 1.008e-05,
        "meta_mean_motion_ddot": 0,
        "tle_line1": "1 33866U 97051AK  25354.02130964  .00001008  00000+0  39194-3 0  9999",
        "tle_line2": "2 33866  86.3001  89.9552 0114974 138.2993 347.7950 14.25295275869140"
      },
      "geometry": {
        "type": "Point",
        "coordinates": [
          -56.05451309087852,
          -83.4395974696421
        ]
      }
    },
    {
      "type": "Feature",
      "properties": {
        "norad_id": 33867,
        "name": "IRIDIUM 33 DEB",
        "group": "iridium-33-debris",
        "lat": -53.634022677916334,
        "lon": 170.92293333746778,
        "alt_km": 330.2424009340675,
        "timestamp": "2025-12-20T14:38:02.354131+00:00",
        "meta_object_name": "IRIDIUM 33 DEB",
        "meta_object_id": "1997-051AL",
        "meta_epoch": "2025-12-20T00:00:24.546240",
        "meta_mean_motion": 15.83320916,
        "meta_eccentricity": 0.00135723,
        "meta_inclination": 86.3644,
        "meta_ra_of_asc_node": 346.2932,
        "meta_arg_of_pericenter": 95.1198,
        "meta_mean_anomaly": 265.1629,
        "meta_ephemeris_type": 0,
        "meta_classification_type": "U",
        "meta_norad_cat_id": 33867,
        "meta_element_set_no": 999,
        "meta_rev_at_epoch": 89625,
        "meta_bstar": 0.0064207293,
        "meta_mean_motion_dot": 0.01574163,
        "meta_mean_motion_ddot": 0,
        "tle_line1": "1 33867U 97051AL  25354.00028410  .01574163  00000+0  64207-2 0  9990",
        "tle_line2": "2 33867  86.3644 346.2932 0013572  95.1198 265.1629 15.83320916896259"
      },
      "geometry": {
        "type": "Point",
        "coordinates": [
          170.92293333746778,
          -53.634022677916334
        ]
      }
    },
    {
      "type": "Feature",
      "properties": {
        "norad_id": 33870,
        "name": "IRIDIUM 33 DEB",
        "group": "iridium-33-debris",
        "lat": -44.822202585787714,
        "lon": -121.49941759495589,
        "alt_km": 740.9918517542283,
        "timestamp": "2025-12-20T14:38:02.354141+00:00",
        "meta_object_name": "IRIDIUM 33 DEB",
        "meta_object_id": "1997-051AP",
        "meta_epoch": "2025-12-20T03:53:26.545056",
        "meta_mean_motion": 14.45886051,
        "meta_eccentricity": 0.00222495,
        "meta_inclination": 86.3743,
        "meta_ra_of_asc_node": 55.0796,
        "meta_arg_of_pericenter": 154.3397,
        "meta_mean_anomaly": 261.7164,
        "meta_ephemeris_type": 0,
        "meta_classification_type": "U",
        "meta_norad_cat_id": 33870,
        "meta_element_set_no": 999,
        "meta_rev_at_epoch": 88244,
        "meta_bstar": 0.00046884783,
        "meta_mean_motion_dot": 1.69e-05,
        "meta_mean_motion_ddot": 0,
        "tle_line1": "1 33870U 97051AP  25354.16211279  .00001690  00000+0  46885-3 0  9990",
        "tle_line2": "2 33870  86.3743  55.0796 0022249 154.3397 261.7164 14.45886051882442"
      },
      "geometry": {
        "type": "Point",
        "coordinates": [
          -121.49941759495589,
          -44.822202585787714
        ]
      }
    },
    {
      "type": "Feature",
      "properties": {
        "norad_id": 33881,
        "name": "IRIDIUM 33 DEB",
        "group": "iridium-33-debris",
        "lat": 36.82419295841339,
        "lon": 106.03394446458522,
        "alt_km": 717.4031265003787,
        "timestamp": "2025-12-20T14:38:02.354152+00:00",
        "meta_object_name": "IRIDIUM 33 DEB",
        "meta_object_id": "1997-051BA",
        "meta_epoch": "2025-12-18T18:38:37.341312",
        "meta_mean_motion": 14.56678227,
        "meta_eccentricity": 0.00614608,
        "meta_inclination": 86.3861,
        "meta_ra_of_asc_node": 104.1184,
        "meta_arg_of_pericenter": 155.2089,
        "meta_mean_anomaly": 356.6087,
        "meta_ephemeris_type": 0,
        "meta_classification_type": "U",
        "meta_norad_cat_id": 33881,
        "meta_element_set_no": 999,
        "meta_rev_at_epoch": 87588,
        "meta_bstar": 0.0015458281,
        "meta_mean_motion_dot": 7.103e-05,
        "meta_mean_motion_ddot": 0,
        "tle_line1": "1 33881U 97051BA  25352.77682108  .00007103  00000+0  15458-2 0  9996",
        "tle_line2": "2 33881  86.3861 104.1184 0061460 155.2089 356.6087 14.56678227875882"
      },
      "geometry": {
        "type": "Point",
        "coordinates": [
          106.03394446458522,
          36.82419295841339
        ]
      }
    },
    {
      "type": "Feature",
      "properties": {
        "norad_id": 33884,
        "name": "IRIDIUM 33 DEB",
        "group": "iridium-33-debris",
        "lat": -34.39079484332124,
        "lon": -171.2433183149084,
        "alt_km": 642.1060462677406,
        "timestamp": "2025-12-20T14:38:02.354162+00:00",
        "meta_object_name": "IRIDIUM 33 DEB",
        "meta_object_id": "1997-051BD",
        "meta_epoch": "2025-12-20T00:47:16.843776",
        "meta_mean_motion": 14.77561987,
        "meta_eccentricity": 0.00091842,
        "meta_inclination": 86.369,
        "meta_ra_of_asc_node": 6.526,
        "meta_arg_of_pericenter": 295.3474,
        "meta_mean_anomaly": 92.3856,
        "meta_ephemeris_type": 0,
        "meta_classification_type": "U",
        "meta_norad_cat_id": 33884,
        "meta_element_set_no": 999,
        "meta_rev_at_epoch": 88955,
        "meta_bstar": 0.00092659392,
        "meta_mean_motion_dot": 6.644e-05,
        "meta_mean_motion_ddot": 0,
        "tle_line1": "1 33884U 97051BD  25354.03283384  .00006644  00000+0  92659-3 0  9991",
        "tle_line2": "2 33884  86.3690   6.5260 0009184 295.3474  92.3856 14.77561987889558"
      },
      "geometry": {
        "type": "Point",
        "coordinates": [
          -171.2433183149084,
          -34.39079484332124
        ]
      }
    }
  ]
}